COMMENT,ORIGINATOR,NORAD_CAT_ID,OBJECT_NAME,OBJECT_TYPE,CLASSIFICATION_TYPE,INTLDES,EPOCH,EPOCH_MICROSECONDS,MEAN_MOTION,ECCENTRICITY,INCLINATION,RA_OF_ASC_NODE,ARG_OF_PERICENTER,MEAN_ANOMALY,EPHEMERIS_TYPE,ELEMENT_SET_NO,REV_AT_EPOCH,BSTAR,MEAN_MOTION_DOT,MEAN_MOTION_DDOT,FILE,TLE_LINE0,TLE_LINE1,TLE_LINE2,OBJECT_ID,OBJECT_NUMBER,SEMIMAJOR_AXIS,PERIOD,APOGEE,PERIGEE,DECAYED
"GENERATED VIA SPACETRACK.ORG API","18 SPCS","48896","SPACEBEE-105","PAYLOAD","U","21059T","2022-10-04 08:22:43","428864","15.17740868","0.0009333","97.5675","46.5218","81.9166","278.3126","0","999","7043","0.001083","0.0002186","0","3590990","0 SPACEBEE-105","1 48896U 21059T   22277.34911376  .00021860  00000-0  10830-2 0  9997","2 48896  97.5675  46.5218 0009333  81.9166 278.3126 15.17740868 70431","2021-059T","48896","6890.807","94.878","519.103","506.241","0"
"GENERATED VIA SPACETRACK.ORG API","18 SPCS","48896","SPACEBEE-105","PAYLOAD","U","21059T","2022-10-04 08:22:43","428864","15.17740868","0.0009333","97.5675","46.5218","81.9166","278.3126","0","999","7043","0.001083","0.0002186","0","3591197","0 SPACEBEE-105","1 48896U 21059T   22277.34911376  .00021860  00000-0  10830-2 0  9997","2 48896  97.5675  46.5218 0009333  81.9166 278.3126 15.17740868 70431","2021-059T","48896","6890.807","94.878","519.103","506.241","0"
"GENERATED VIA SPACETRACK.ORG API","18 SPCS","48896","SPACEBEE-105","PAYLOAD","U","21059T","2022-10-04 14:42:28","501632","15.17752415","0.0009313","97.5674","46.7852","81.0412","279.1875","0","999","7047","0.0011183","0.00022584","0","3591597","0 SPACEBEE-105","1 48896U 21059T   22277.61282988  .00022584  00000-0  11183-2 0  9993","2 48896  97.5674  46.7852 0009313  81.0412 279.1875 15.17752415 70474","2021-059T","48896","6890.772","94.877","519.054","506.220","0"
"GENERATED VIA SPACETRACK.ORG API","18 SPCS","48896","SPACEBEE-105","PAYLOAD","U","21059T","2022-10-05 08:06:46","638720","15.17781001","0.0009253","97.5676","47.5102","78.5696","281.6576","0","999","7058","0.0010486","0.00021186","0","3592692","0 SPACEBEE-105","1 48896U 21059T   22278.33803980  .00021186  00000-0  10486-2 0  9996","2 48896  97.5676  47.5102 0009253  78.5696 281.6576 15.17781001 70582","2021-059T","48896","6890.686","94.875","518.927","506.175","0"
"GENERATED VIA SPACETRACK.ORG API","18 SPCS","48896","SPACEBEE-105","PAYLOAD","U","21059T","2022-10-05 20:46:15","425184","15.17802275","0.0009145","97.5677","48.0374","76.6852","283.5401","0","999","7066","0.0010258","0.00020734","0","3593077","0 SPACEBEE-105","1 48896U 21059T   22278.86545631  .00020734  00000-0  10258-2 0  9995","2 48896  97.5677  48.0374 0009145  76.6852 283.5401 15.17802275 70667","2021-059T","48896","6890.621","94.874","518.788","506.185","0"
"GENERATED VIA SPACETRACK.ORG API","18 SPCS","48896","SPACEBEE-105","PAYLOAD","U","21059T","2022-10-05 22:21:11","480832","15.17804781","0.0009105","97.5678","48.1033","76.5851","283.6397","0","999","7067","0.001038","0.00020984","0","3593309","0 SPACEBEE-105","1 48896U 21059T   22278.93138288  .00020984  00000-0  10380-2 0  9992","2 48896  97.5678  48.1033 0009105  76.5851 283.6397 15.17804781 70675","2021-059T","48896","6890.614","94.874","518.753","506.205","0"
"GENERATED VIA SPACETRACK.ORG API","18 SPCS","48896","SPACEBEE-105","PAYLOAD","U","21059T","2022-10-06 07:50:47","562432","15.17823719","0.0009075","97.5678","48.4988","74.5349","285.6886","0","999","7073","0.0011825","0.00023937","0","3593749","0 SPACEBEE-105","1 48896U 21059T   22279.32693938  .00023937  00000-0  11825-2 0  9990","2 48896  97.5678  48.4988 0009075  74.5349 285.6886 15.17823719 70737","2021-059T","48896","6890.556","94.873","518.674","506.168","0"
"GENERATED VIA SPACETRACK.ORG API","18 SPCS","48896","SPACEBEE-105","PAYLOAD","U","21059T","2022-10-07 07:34:45","954624","15.17870574","0.0009022","97.5682","49.4871","70.9799","289.2411","0","999","7088","0.00127","0.00025754","0","3595175","0 SPACEBEE-105","1 48896U 21059T   22280.31580966  .00025754  00000-0  12700-2 0  9999","2 48896  97.5682  49.4871 0009022  70.9799 289.2411 15.17870574 70886","2021-059T","48896","6890.414","94.870","518.496","506.063","0"
"GENERATED VIA SPACETRACK.ORG API","18 SPCS","48896","SPACEBEE-105","PAYLOAD","U","21059T","2022-10-07 07:34:45","954624","15.17870574","0.0009022","97.5682","49.4871","70.9799","289.2411","0","999","7088","0.00127","0.00025754","0","3595509","0 SPACEBEE-105","1 48896U 21059T   22280.31580966  .00025754  00000-0  12700-2 0  9999","2 48896  97.5682  49.4871 0009022  70.9799 289.2411 15.17870574 70886","2021-059T","48896","6890.414","94.870","518.496","506.063","0"
"GENERATED VIA SPACETRACK.ORG API","18 SPCS","48896","SPACEBEE-105","PAYLOAD","U","21059T","2022-10-07 15:29:24","807264","15.17884818","0.0008992","97.5685","49.8163","70.0605","290.1596","0","999","7093","0.0011693","0.00023709","0","3595773","0 SPACEBEE-105","1 48896U 21059T   22280.64542601  .00023709  00000-0  11693-2 0  9997","2 48896  97.5685  49.8163 0008992  70.0605 290.1596 15.17884818 70936","2021-059T","48896","6890.371","94.869","518.432","506.041","0"
"GENERATED VIA SPACETRACK.ORG API","18 SPCS","48896","SPACEBEE-105","PAYLOAD","U","21059T","2022-10-08 08:53:37","269600","15.1791934","0.0009026","97.5689","50.5418","67.5615","292.6574","0","999","7104","0.0010737","0.00021781","0","3596228","0 SPACEBEE-105","1 48896U 21059T   22281.37057025  .00021781  00000-0  10737-2 0  9995","2 48896  97.5689  50.5418 0009026  67.5615 292.6574 15.17919340 71048","2021-059T","48896","6890.267","94.867","518.351","505.913","0"
"GENERATED VIA SPACETRACK.ORG API","18 SPCS","48896","SPACEBEE-105","PAYLOAD","U","21059T","2022-10-08 08:53:37","269600","15.1791934","0.0009026","97.5689","50.5418","67.5615","292.6574","0","999","7104","0.0010737","0.00021781","0","3596390","0 SPACEBEE-105","1 48896U 21059T   22281.37057025  .00021781  00000-0  10737-2 0  9995","2 48896  97.5689  50.5418 0009026  67.5615 292.6574 15.17919340 71048","2021-059T","48896","6890.267","94.867","518.351","505.913","0"
"GENERATED VIA SPACETRACK.ORG API","18 SPCS","48896","SPACEBEE-105","PAYLOAD","U","21059T","2022-10-09 07:02:34","818720","15.17962747","0.0009145","97.5689","51.4646","65.4459","294.7726","0","999","7118","0.0011817","0.00024017","0","3597861","0 SPACEBEE-105","1 48896U 21059T   22282.29345855  .00024017  00000-0  11817-2 0  9993","2 48896  97.5689  51.4646 0009145  65.4459 294.7726 15.17962747 71182","2021-059T","48896","6890.136","94.864","518.302","505.700","0"
"GENERATED VIA SPACETRACK.ORG API","18 SPCS","48896","SPACEBEE-105","PAYLOAD","U","21059T","2022-10-09 19:41:58","8192","15.17990646","0.0009103","97.569","51.9917","64.029","296.1881","0","999","7126","0.0011947","0.00024302","0","3598176","0 SPACEBEE-105","1 48896U 21059T   22282.82081028  .00024302  00000-0  11947-2 0  9992","2 48896  97.5690  51.9917 0009103  64.0290 296.1881 15.17990646 71268","2021-059T","48896","6890.051","94.862","518.188","505.644","0"
"GENERATED VIA SPACETRACK.ORG API","18 SPCS","48896","SPACEBEE-105","PAYLOAD","U","21059T","2022-10-09 19:41:58","8192","15.17990646","0.0009103","97.569","51.9917","64.029","296.1881","0","999","7126","0.0011947","0.00024302","0","3598879","0 SPACEBEE-105","1 48896U 21059T   22282.82081028  .00024302  00000-0  11947-2 0  9992","2 48896  97.5690  51.9917 0009103  64.0290 296.1881 15.17990646 71268","2021-059T","48896","6890.051","94.862","518.188","505.644","0"
"GENERATED VIA SPACETRACK.ORG API","18 SPCS","48896","SPACEBEE-105","PAYLOAD","U","21059T","2022-10-10 08:21:20","328480","15.18016154","0.0009108","97.5698","52.5201","61.9821","298.2333","0","999","7134","0.001028","0.00020907","0","3600948","0 SPACEBEE-105","1 48896U 21059T   22283.34815195  .00020907  00000-0  10280-2 0  9996","2 48896  97.5698  52.5201 0009108  61.9821 298.2333 15.18016154 71348","2021-059T","48896","6889.974","94.861","518.114","505.564","0"
"GENERATED VIA SPACETRACK.ORG API","18 SPCS","48896","SPACEBEE-105","PAYLOAD","U","21059T","2022-10-11 08:05:07","766016","15.18061677","0.0009029","97.5699","53.5091","58.5093","301.7022","0","999","7149","0.0010538","0.00021463","0","3602859","0 SPACEBEE-105","1 48896U 21059T   22284.33689544  .00021463  00000-0  10538-2 0  9997","2 48896  97.5699  53.5091 0009029  58.5093 301.7022 15.18061677 71493","2021-059T","48896","6889.836","94.858","517.922","505.480","0"
"GENERATED VIA SPACETRACK.ORG API","18 SPCS","48896","SPACEBEE-105","PAYLOAD","U","21059T","2022-10-11 08:05:07","766016","15.18061677","0.0009029","97.5699","53.5091","58.5093","301.7022","0","999","7149","0.0010538","0.00021463","0","3603543","0 SPACEBEE-105","1 48896U 21059T   22284.33689544  .00021463  00000-0  10538-2 0  9997","2 48896  97.5699  53.5091 0009029  58.5093 301.7022 15.18061677 71493","2021-059T","48896","6889.836","94.858","517.922","505.480","0"
"GENERATED VIA SPACETRACK.ORG API","18 SPCS","48896","SPACEBEE-105","PAYLOAD","U","21059T","2022-10-12 07:48:52","938144","15.18103084","0.000894","97.5701","54.4982","54.9365","305.2706","0","999","7164","0.0012206","0.00024912","0","3606148","0 SPACEBEE-105","1 48896U 21059T   22285.32561271  .00024912  00000-0  12206-2 0  9999","2 48896  97.5701  54.4982 0008940  54.9365 305.2706 15.18103084 71643","2021-059T","48896","6889.711","94.855","517.735","505.417","0"
"GENERATED VIA SPACETRACK.ORG API","18 SPCS","48896","SPACEBEE-105","PAYLOAD","U","21059T","2022-10-13 07:32:35","932992","15.18138264","0.000895","97.5703","55.4873","52.074","308.1302","0","999","7179","0.00097368","0.00019865","0","3608519","0 SPACEBEE-105","1 48896U 21059T   22286.31430478  .00019865  00000-0  97368-3 0  9997","2 48896  97.5703  55.4873 0008950  52.0740 308.1302 15.18138264 71790","2021-059T","48896","6889.604","94.853","517.636","505.303","0"
